CCSDS_OMM_VERS = 2.0
CREATION_DATE  = 
ORIGINATOR     = 

OBJECT_NAME    = ELECTRON KICK STAGE R/B
OBJECT_ID      = 2026-019C
CENTER_NAME    = EARTH
REF_FRAME      = TEME
TIME_SYSTEM    = UTC
MEAN_ELEMENT_THEORY = SGP/SGP4

EPOCH          = 2026-02-01T18:57:49.092192
MEAN_MOTION    = 15.54465384
ECCENTRICITY   = .02054802
INCLINATION    = 97.4061
RA_OF_ASC_NODE = 157.8487
ARG_OF_PERICENTER = 252.3044
MEAN_ANOMALY   = 105.5685

EPHEMERIS_TYPE = 0
CLASSIFICATION_TYPE = U
NORAD_CAT_ID   = 67616
ELEMENT_SET_NO = 999
REV_AT_EPOCH   = 42
BSTAR          = .1570084E-2
MEAN_MOTION_DOT = .270668E-2
MEAN_MOTION_DDOT = .20966934E-4

CCSDS_OMM_VERS = 2.0
CREATION_DATE  = 
ORIGINATOR     = 

OBJECT_NAME    = ALSAT-3B
OBJECT_ID      = 2026-021A
CENTER_NAME    = EARTH
REF_FRAME      = TEME
TIME_SYSTEM    = UTC
MEAN_ELEMENT_THEORY = SGP/SGP4

EPOCH          = 2026-02-01T23:38:13.172352
MEAN_MOTION    = 15.23379525
ECCENTRICITY   = .00113255
INCLINATION    = 97.4741
RA_OF_ASC_NODE = 107.4739
ARG_OF_PERICENTER = 259.2171
MEAN_ANOMALY   = 100.7792

EPHEMERIS_TYPE = 0
CLASSIFICATION_TYPE = U
NORAD_CAT_ID   = 67646
ELEMENT_SET_NO = 999
REV_AT_EPOCH   = 28
BSTAR          = .27299781E-3
MEAN_MOTION_DOT = .6431E-4
MEAN_MOTION_DDOT = 0

CCSDS_OMM_VERS = 2.0
CREATION_DATE  = 
ORIGINATOR     = 

OBJECT_NAME    = CZ-2C R/B
OBJECT_ID      = 2026-021B
CENTER_NAME    = EARTH
REF_FRAME      = TEME
TIME_SYSTEM    = UTC
MEAN_ELEMENT_THEORY = SGP/SGP4

EPOCH          = 2026-02-01T23:39:38.323872
MEAN_MOTION    = 15.23051243
ECCENTRICITY   = .01543866
INCLINATION    = 97.6582
RA_OF_ASC_NODE = 107.7347
ARG_OF_PERICENTER = 135.1837
MEAN_ANOMALY   = 226.1991

EPHEMERIS_TYPE = 0
CLASSIFICATION_TYPE = U
NORAD_CAT_ID   = 67647
ELEMENT_SET_NO = 999
REV_AT_EPOCH   = 26
BSTAR          = .40988768E-3
MEAN_MOTION_DOT = .13426E-3
MEAN_MOTION_DDOT = 0

