ELECTRON KICK STAGE R/B 
1 67616U 26019C   26032.79015153  .00270668  20967-4  15701-2 0  9991
2 67616  97.4061 157.8487 0205480 252.3044 105.5685 15.54465384   425
ALSAT-3B                
1 67646U 26021A   26032.98487468  .00006431  00000+0  27300-3 0  9995
2 67646  97.4741 107.4739 0011325 259.2171 100.7792 15.23379525   281
CZ-2C R/B               
1 67647U 26021B   26032.98586023  .00013426  00000+0  40989-3 0  9993
2 67647  97.6582 107.7347 0154386 135.1837 226.1991 15.23051243   267
